{"type":"FeatureCollection","features":[{"type":"Feature","id":0,"geometry":{"type":"Point","coordinates":[-77.053432999697961,38.82066399991421]},"properties":{"FID":0,"TENANT":"Aldi","STATUS":"Open","ADDRESS":"425 E. Monroe Avenue","CITY":"Alexandria","STATE":"VA","ZIP_CODE":22301,"LATITUDE":38.820664000000001,"LONGITUDE":-77.053432999999998}},{"type":"Feature","id":1,"geometry":{"type":"Point","coordinates":[-77.110930999862973,38.811586999671903]},"properties":{"FID":1,"TENANT":"Aldi","STATUS":"Open","ADDRESS":"4580 Duke Street","CITY":"Alexandria","STATE":"VA","ZIP_CODE":22304,"LATITUDE":38.811587000000003,"LONGITUDE":-77.110930999999994}},{"type":"Feature","id":2,"geometry":{"type":"Point","coordinates":[-77.109509999830792,38.829223500337932]},"properties":{"FID":2,"TENANT":"Aldi","STATUS":"Open","ADDRESS":"4602 Kenmore Avenue","CITY":"Alexandria","STATE":"VA","ZIP_CODE":22304,"LATITUDE":38.829223499999998,"LONGITUDE":-77.10951}},{"type":"Feature","id":3,"geometry":{"type":"Point","coordinates":[-77.139678999671403,38.767934000095664]},"properties":{"FID":3,"TENANT":"Aldi","STATUS":"Open","ADDRESS":"6001 Kingstowne Village Pkwy","CITY":"Alexandria","STATE":"VA","ZIP_CODE":22315,"LATITUDE":38.767933999999997,"LONGITUDE":-77.139679000000001}},{"type":"Feature","id":4,"geometry":{"type":"Point","coordinates":[-77.079929499807534,38.782651640233432]},"properties":{"FID":4,"TENANT":"Aldi","STATUS":"Open","ADDRESS":"6218 North Kings Highway","CITY":"Alexandria","STATE":"VA","ZIP_CODE":22303,"LATITUDE":38.782651639999997,"LONGITUDE":-77.079929500000006}},{"type":"Feature","id":5,"geometry":{"type":"Point","coordinates":[-77.100289000051816,38.7342079997401]},"properties":{"FID":5,"TENANT":"Aldi","STATUS":"Open","ADDRESS":"8256 Richmond Highway","CITY":"Alexandria","STATE":"VA","ZIP_CODE":22309,"LATITUDE":38.734208000000002,"LONGITUDE":-77.100289000000004}},{"type":"Feature","id":6,"geometry":{"type":"Point","coordinates":[-77.187446000419499,38.834654999727384]},"properties":{"FID":6,"TENANT":"Aldi","STATUS":"Open","ADDRESS":"7006 Columbia Pike","CITY":"Annandale","STATE":"VA","ZIP_CODE":22003,"LATITUDE":38.834654999999998,"LONGITUDE":-77.187445999999994}},{"type":"Feature","id":7,"geometry":{"type":"Point","coordinates":[-77.508700100174707,39.026910200109697]},"properties":{"FID":7,"TENANT":"Aldi","STATUS":"Open","ADDRESS":"43150 Broadlands Ctr Plaza","CITY":"Ashburn","STATE":"VA","ZIP_CODE":20148,"LATITUDE":39.026910200000003,"LONGITUDE":-77.508700099999999}},{"type":"Feature","id":8,"geometry":{"type":"Point","coordinates":[-82.143995500135148,36.630199100313327]},"properties":{"FID":8,"TENANT":"Aldi","STATUS":"Open","ADDRESS":"720 Cabela Drive","CITY":"Bristol","STATE":"VA","ZIP_CODE":24202,"LATITUDE":36.630199099999999,"LONGITUDE":-82.143995500000003}},{"type":"Feature","id":9,"geometry":{"type":"Point","coordinates":[-77.427552299950065,38.894071199763253]},"properties":{"FID":9,"TENANT":"Aldi","STATUS":"Open","ADDRESS":"13920A Lee Jackson Mem Hwy","CITY":"Chantilly","STATE":"VA","ZIP_CODE":20151,"LATITUDE":38.894071199999999,"LONGITUDE":-77.427552300000002}},{"type":"Feature","id":10,"geometry":{"type":"Point","coordinates":[-78.471796700204052,38.08093829997226]},"properties":{"FID":10,"TENANT":"Aldi","STATUS":"Open","ADDRESS":"100 Albermarle Square","CITY":"Charlottesville","STATE":"VA","ZIP_CODE":22901,"LATITUDE":38.0809383,"LONGITUDE":-78.471796699999999}},{"type":"Feature","id":11,"geometry":{"type":"Point","coordinates":[-76.236745700356749,36.767014399837407]},"properties":{"FID":11,"TENANT":"Aldi","STATUS":"Open","ADDRESS":"1256 Executive Blvd","CITY":"Chesapeake","STATE":"VA","ZIP_CODE":23320,"LATITUDE":36.767014400000001,"LONGITUDE":-76.2367457}},{"type":"Feature","id":12,"geometry":{"type":"Point","coordinates":[-76.287303100142651,36.718368399855542]},"properties":{"FID":12,"TENANT":"Aldi","STATUS":"Open","ADDRESS":"1269 Cedar Road","CITY":"Chesapeake","STATE":"VA","ZIP_CODE":23322,"LATITUDE":36.718368400000003,"LONGITUDE":-76.287303100000003}},{"type":"Feature","id":13,"geometry":{"type":"Point","coordinates":[-76.236745700356749,36.821615999866864]},"properties":{"FID":13,"TENANT":"Aldi","STATUS":"Open","ADDRESS":"4107 Portsmouth Blvd","CITY":"Chesapeake","STATE":"VA","ZIP_CODE":23321,"LATITUDE":36.821615999999999,"LONGITUDE":-76.2367457}},{"type":"Feature","id":14,"geometry":{"type":"Point","coordinates":[-77.49950899992163,37.363185000202073]},"properties":{"FID":14,"TENANT":"Aldi","STATUS":"Open","ADDRESS":"11100 Iron Bridge Rd","CITY":"Chester","STATE":"VA","ZIP_CODE":23831,"LATITUDE":37.363185000000001,"LONGITUDE":-77.499509000000003}},{"type":"Feature","id":15,"geometry":{"type":"Point","coordinates":[-77.71165949963833,37.397232360216456]},"properties":{"FID":15,"TENANT":"Aldi","STATUS":"Open","ADDRESS":"7500 Harpers Green Way","CITY":"Chesterfield","STATE":"VA","ZIP_CODE":23832,"LATITUDE":37.397232359999997,"LONGITUDE":-77.711659499999996}},{"type":"Feature","id":16,"geometry":{"type":"Point","coordinates":[-80.420546299704625,37.160415299799105]},"properties":{"FID":16,"TENANT":"Aldi","STATUS":"Open","ADDRESS":"2265 N Franklin Street","CITY":"Christiansburg","STATE":"VA","ZIP_CODE":24073,"LATITUDE":37.160415299999997,"LONGITUDE":-80.420546299999998}},{"type":"Feature","id":17,"geometry":{"type":"Point","coordinates":[-77.382651000416814,37.252608999691255]},"properties":{"FID":17,"TENANT":"Aldi","STATUS":"Open","ADDRESS":"465 Charles Dimmock Parkway","CITY":"Colonial Heights","STATE":"VA","ZIP_CODE":23834,"LATITUDE":37.252609,"LONGITUDE":-77.382650999999996}},{"type":"Feature","id":18,"geometry":{"type":"Point","coordinates":[-77.968601999969351,38.487076000091029]},"properties":{"FID":18,"TENANT":"Aldi","STATUS":"Open","ADDRESS":"15179 Montanus Drive","CITY":"Culpeper","STATE":"VA","ZIP_CODE":22701,"LATITUDE":38.487076000000002,"LONGITUDE":-77.968602000000004}},{"type":"Feature","id":19,"geometry":{"type":"Point","coordinates":[-79.428013999990981,36.582394999884357]},"properties":{"FID":19,"TENANT":"Aldi","STATUS":"Open","ADDRESS":"3465 Riverside Dr.","CITY":"Danville","STATE":"VA","ZIP_CODE":24541,"LATITUDE":36.582394999999998,"LONGITUDE":-79.428014000000005}},{"type":"Feature","id":20,"geometry":{"type":"Point","coordinates":[-77.310726000194975,38.582664000128467]},"properties":{"FID":20,"TENANT":"Aldi","STATUS":"Open","ADDRESS":"17010 Jefferson Davis Hwy","CITY":"Dumfries","STATE":"VA","ZIP_CODE":22026,"LATITUDE":38.582664000000001,"LONGITUDE":-77.310726000000003}},{"type":"Feature","id":21,"geometry":{"type":"Point","coordinates":[-77.323698999709336,38.852058000202952]},"properties":{"FID":21,"TENANT":"Aldi","STATUS":"Open","ADDRESS":"11001 Lee Highway","CITY":"Fairfax","STATE":"VA","ZIP_CODE":22030,"LATITUDE":38.852058,"LONGITUDE":-77.323699000000005}},{"type":"Feature","id":22,"geometry":{"type":"Point","coordinates":[-77.391637399769436,38.856476199931905]},"properties":{"FID":22,"TENANT":"Aldi","STATUS":"Open","ADDRESS":"13033 Fair Lakes Shop Ctr","CITY":"Fairfax","STATE":"VA","ZIP_CODE":22033,"LATITUDE":38.856476200000003,"LONGITUDE":-77.391637399999993}},{"type":"Feature","id":23,"geometry":{"type":"Point","coordinates":[-77.172019000279974,38.879734999884448]},"properties":{"FID":23,"TENANT":"Aldi","STATUS":"Open","ADDRESS":"155 Hillwood Ave","CITY":"Falls Church","STATE":"VA","ZIP_CODE":22046,"LATITUDE":38.879734999999997,"LONGITUDE":-77.172019000000006}},{"type":"Feature","id":24,"geometry":{"type":"Point","coordinates":[-77.12629100005536,38.850058000260027]},"properties":{"FID":24,"TENANT":"Aldi","STATUS":"Open","ADDRESS":"5725 Columbia Pike","CITY":"Falls Church","STATE":"VA","ZIP_CODE":22041,"LATITUDE":38.850057999999997,"LONGITUDE":-77.126290999999995}},{"type":"Feature","id":25,"geometry":{"type":"Point","coordinates":[-77.225681900257612,38.866382800074376]},"properties":{"FID":25,"TENANT":"Aldi","STATUS":"Open","ADDRESS":"8100A Arlington Blvd","CITY":"Falls Church","STATE":"VA","ZIP_CODE":22042,"LATITUDE":38.866382799999997,"LONGITUDE":-77.225681899999998}},{"type":"Feature","id":26,"geometry":{"type":"Point","coordinates":[-77.520805999962761,38.363806999746657]},"properties":{"FID":26,"TENANT":"Aldi","STATUS":"Open","ADDRESS":"1030 Warrenton Road","CITY":"Fredericksburg","STATE":"VA","ZIP_CODE":22406,"LATITUDE":38.363807000000001,"LONGITUDE":-77.520805999999993}},{"type":"Feature","id":27,"geometry":{"type":"Point","coordinates":[-77.534297000409296,38.290892000074201]},"properties":{"FID":27,"TENANT":"Aldi","STATUS":"Open","ADDRESS":"4173 Plank Road","CITY":"Fredericksburg","STATE":"VA","ZIP_CODE":22407,"LATITUDE":38.290891999999999,"LONGITUDE":-77.534296999999995}},{"type":"Feature","id":28,"geometry":{"type":"Point","coordinates":[-77.500828999671498,38.25509199981424]},"properties":{"FID":28,"TENANT":"Aldi","STATUS":"Open","ADDRESS":"5099 Jefferson Davis","CITY":"Fredericksburg","STATE":"VA","ZIP_CODE":22408,"LATITUDE":38.255091999999998,"LONGITUDE":-77.500828999999996}},{"type":"Feature","id":29,"geometry":{"type":"Point","coordinates":[-78.186844699669777,38.963877200225035]},"properties":{"FID":29,"TENANT":"Aldi","STATUS":"Open","ADDRESS":"134 Riverton Commons Drive","CITY":"Front Royal","STATE":"VA","ZIP_CODE":22630,"LATITUDE":38.963877199999999,"LONGITUDE":-78.186844699999995}},{"type":"Feature","id":30,"geometry":{"type":"Point","coordinates":[-76.526876999645339,37.395906999811722]},"properties":{"FID":30,"TENANT":"Aldi","STATUS":"Open","ADDRESS":"7176 George Washington Mem","CITY":"Gloucester","STATE":"VA","ZIP_CODE":23061,"LATITUDE":37.395907000000001,"LONGITUDE":-76.526876999999999}},{"type":"Feature","id":31,"geometry":{"type":"Point","coordinates":[-76.382637499575964,37.041066800282245]},"properties":{"FID":31,"TENANT":"Aldi","STATUS":"Open","ADDRESS":"1980 Saville Row","CITY":"Hampton","STATE":"VA","ZIP_CODE":23666,"LATITUDE":37.041066800000003,"LONGITUDE":-76.382637500000001}},{"type":"Feature","id":32,"geometry":{"type":"Point","coordinates":[-78.839265099569673,38.428590400101328]},"properties":{"FID":32,"TENANT":"Aldi","STATUS":"Open","ADDRESS":"1990 Country Club Rd","CITY":"Harrisonburg","STATE":"VA","ZIP_CODE":22802,"LATITUDE":38.428590399999997,"LONGITUDE":-78.839265100000006}},{"type":"Feature","id":33,"geometry":{"type":"Point","coordinates":[-77.641863580301717,38.813596849902126]},"properties":{"FID":33,"TENANT":"Aldi","STATUS":"Open","ADDRESS":"6701 Lea Berry Way","CITY":"Haymarket","STATE":"VA","ZIP_CODE":20169,"LATITUDE":38.813596850000003,"LONGITUDE":-77.641863580000006}},{"type":"Feature","id":34,"geometry":{"type":"Point","coordinates":[-77.643887000444906,37.662183999658133]},"properties":{"FID":34,"TENANT":"Aldi","STATUS":"Open","ADDRESS":"12390 West Broad Street","CITY":"Henrico","STATE":"VA","ZIP_CODE":23233,"LATITUDE":37.662184000000003,"LONGITUDE":-77.643887000000007}},{"type":"Feature","id":35,"geometry":{"type":"Point","coordinates":[-77.564710999573975,37.609800999902625]},"properties":{"FID":35,"TENANT":"Aldi","STATUS":"Open","ADDRESS":"1776 North Parham Road","CITY":"Henrico","STATE":"VA","ZIP_CODE":23229,"LATITUDE":37.609800999999997,"LONGITUDE":-77.564711000000003}},{"type":"Feature","id":36,"geometry":{"type":"Point","coordinates":[-77.510990000157022,37.637589999918532]},"properties":{"FID":36,"TENANT":"Aldi","STATUS":"Open","ADDRESS":"8951 Staples Mill Road","CITY":"Henrico","STATE":"VA","ZIP_CODE":23228,"LATITUDE":37.637590000000003,"LONGITUDE":-77.510990000000007}},{"type":"Feature","id":37,"geometry":{"type":"Point","coordinates":[-77.532395789772295,39.095476179940185]},"properties":{"FID":37,"TENANT":"Aldi","STATUS":"Open","ADDRESS":"125 Robinson Mill Plaza","CITY":"Leesburg","STATE":"VA","ZIP_CODE":20176,"LATITUDE":39.095476179999999,"LONGITUDE":-77.532395789999995}},{"type":"Feature","id":38,"geometry":{"type":"Point","coordinates":[-79.2274670001717,37.395490999643791]},"properties":{"FID":38,"TENANT":"Aldi","STATUS":"Open","ADDRESS":"2617 Lakeside Dr.","CITY":"Lynchburg","STATE":"VA","ZIP_CODE":24501,"LATITUDE":37.395491,"LONGITUDE":-79.227467000000004}},{"type":"Feature","id":39,"geometry":{"type":"Point","coordinates":[-79.190345139745006,37.348368000061086]},"properties":{"FID":39,"TENANT":"Aldi","STATUS":"Open","ADDRESS":"4026 Wards Rd","CITY":"Lynchburg","STATE":"Va","ZIP_CODE":24502,"LATITUDE":37.348368000000001,"LONGITUDE":-79.190345140000005}},{"type":"Feature","id":40,"geometry":{"type":"Point","coordinates":[-77.505648000335043,38.779524000227681]},"properties":{"FID":40,"TENANT":"Aldi","STATUS":"Open","ADDRESS":"10294 Portsmouth Road","CITY":"Manassas","STATE":"VA","ZIP_CODE":20109,"LATITUDE":38.779524000000002,"LONGITUDE":-77.505647999999994}},{"type":"Feature","id":41,"geometry":{"type":"Point","coordinates":[-77.451641999614438,38.746218999850541]},"properties":{"FID":41,"TENANT":"Aldi","STATUS":"Open","ADDRESS":"9714 Liberia Avenue","CITY":"Manassas","STATE":"VA","ZIP_CODE":20110,"LATITUDE":38.746219000000004,"LONGITUDE":-77.451642000000007}},{"type":"Feature","id":42,"geometry":{"type":"Point","coordinates":[-79.891048099704236,36.697997700341539]},"properties":{"FID":42,"TENANT":"Aldi","STATUS":"Open","ADDRESS":"388 Commonwealth Blvd. West","CITY":"Martinsville","STATE":"VA","ZIP_CODE":24112,"LATITUDE":36.697997700000002,"LONGITUDE":-79.891048100000006}},{"type":"Feature","id":43,"geometry":{"type":"Point","coordinates":[-77.336806000016324,37.610851999830487]},"properties":{"FID":43,"TENANT":"Aldi","STATUS":"Open","ADDRESS":"7003 Mechanicsville Tnpk","CITY":"Mechanicsville","STATE":"VA","ZIP_CODE":23111,"LATITUDE":37.610852000000001,"LONGITUDE":-77.336805999999996}},{"type":"Feature","id":44,"geometry":{"type":"Point","coordinates":[-77.620933000370073,37.428600999809881]},"properties":{"FID":44,"TENANT":"Aldi","STATUS":"Open","ADDRESS":"12431 Hull Street Road","CITY":"Midlothian","STATE":"VA","ZIP_CODE":23112,"LATITUDE":37.428601,"LONGITUDE":-77.620932999999994}},{"type":"Feature","id":45,"geometry":{"type":"Point","coordinates":[-77.6674499998919,37.506479000276627]},"properties":{"FID":45,"TENANT":"Aldi","STATUS":"Open","ADDRESS":"14381 Winterview Pkwy","CITY":"Midlothian","STATE":"VA","ZIP_CODE":23112,"LATITUDE":37.506478999999999,"LONGITUDE":-77.667450000000002}},{"type":"Feature","id":46,"geometry":{"type":"Point","coordinates":[-76.489312400039296,37.095921999746082]},"properties":{"FID":46,"TENANT":"Aldi","STATUS":"Open","ADDRESS":"11975 Jefferson Ave","CITY":"Newport News","STATE":"VA","ZIP_CODE":23606,"LATITUDE":37.095922000000002,"LONGITUDE":-76.489312400000003}},{"type":"Feature","id":47,"geometry":{"type":"Point","coordinates":[-76.516804299958977,37.126021300040016]},"properties":{"FID":47,"TENANT":"Aldi","STATUS":"Open","ADDRESS":"549 Bland Blvd","CITY":"Newport News","STATE":"VA","ZIP_CODE":23602,"LATITUDE":37.126021299999998,"LONGITUDE":-76.516804300000004}},{"type":"Feature","id":48,"geometry":{"type":"Point","coordinates":[-76.208987999724258,36.858358000331528]},"properties":{"FID":48,"TENANT":"Aldi","STATUS":"Open","ADDRESS":"1050 N Military Hwy","CITY":"Norfolk","STATE":"VA","ZIP_CODE":23502,"LATITUDE":36.858358000000003,"LONGITUDE":-76.208988000000005}},{"type":"Feature","id":49,"geometry":{"type":"Point","coordinates":[-76.230942730046706,36.917318259813477]},"properties":{"FID":49,"TENANT":"Aldi","STATUS":"Open","ADDRESS":"1600 E. Little Creek Rd.","CITY":"Norfolk","STATE":"VA","ZIP_CODE":23518,"LATITUDE":36.917318260000002,"LONGITUDE":-76.230942729999995}},{"type":"Feature","id":50,"geometry":{"type":"Point","coordinates":[-76.294149000124477,36.870523999895852]},"properties":{"FID":50,"TENANT":"Aldi","STATUS":"Open","ADDRESS":"730 West 21st St","CITY":"Norfolk","STATE":"VA","ZIP_CODE":23502,"LATITUDE":36.870524000000003,"LONGITUDE":-76.294149000000004}},{"type":"Feature","id":51,"geometry":{"type":"Point","coordinates":[-77.606696000284032,37.519918000297515]},"properties":{"FID":51,"TENANT":"Aldi","STATUS":"Open","ADDRESS":"1670 Mall Drive","CITY":"North Chesterfield","STATE":"VA","ZIP_CODE":23235,"LATITUDE":37.519917999999997,"LONGITUDE":-77.606695999999999}},{"type":"Feature","id":52,"geometry":{"type":"Point","coordinates":[-76.393936999699775,36.860004000108709]},"properties":{"FID":52,"TENANT":"Aldi","STATUS":"Open","ADDRESS":"5811 West High Street","CITY":"Portsmouth","STATE":"VA","ZIP_CODE":23703,"LATITUDE":36.860004000000004,"LONGITUDE":-76.393936999999994}},{"type":"Feature","id":53,"geometry":{"type":"Point","coordinates":[-77.51325200026325,37.595851999883521]},"properties":{"FID":53,"TENANT":"Aldi","STATUS":"Open","ADDRESS":"6295 West Broad Street","CITY":"Richmond","STATE":"VA","ZIP_CODE":23230,"LATITUDE":37.595852000000001,"LONGITUDE":-77.513251999999994}},{"type":"Feature","id":54,"geometry":{"type":"Point","coordinates":[-77.531421000009729,37.536519000346615]},"properties":{"FID":54,"TENANT":"Aldi","STATUS":"Open","ADDRESS":"7319 Forest Hill Avenue","CITY":"Richmond","STATE":"VA","ZIP_CODE":23225,"LATITUDE":37.536518999999998,"LONGITUDE":-77.531420999999995}},{"type":"Feature","id":55,"geometry":{"type":"Point","coordinates":[-77.468469999694662,37.563255999908087]},"properties":{"FID":55,"TENANT":"Aldi","STATUS":"Open","ADDRESS":"927 Myers Street","CITY":"Richmond","STATE":"VA","ZIP_CODE":23230,"LATITUDE":37.563256000000003,"LONGITUDE":-77.468469999999996}},{"type":"Feature","id":56,"geometry":{"type":"Point","coordinates":[-79.961391899736,37.315986200036306]},"properties":{"FID":56,"TENANT":"Aldi","STATUS":"Open","ADDRESS":"1521 Hershberger Road NW","CITY":"Roanoke","STATE":"VA","ZIP_CODE":24012,"LATITUDE":37.315986199999998,"LONGITUDE":-79.961391899999995}},{"type":"Feature","id":57,"geometry":{"type":"Point","coordinates":[-77.183810000136745,38.783812999946818]},"properties":{"FID":57,"TENANT":"Aldi","STATUS":"Open","ADDRESS":"6129 Backlick Road","CITY":"Springfield","STATE":"VA","ZIP_CODE":22150,"LATITUDE":38.783813000000002,"LONGITUDE":-77.183809999999994}},{"type":"Feature","id":58,"geometry":{"type":"Point","coordinates":[-77.41951079981726,38.473057600092261]},"properties":{"FID":58,"TENANT":"Aldi","STATUS":"Open","ADDRESS":"263 Garrisonville Road","CITY":"Stafford","STATE":"VA","ZIP_CODE":22554,"LATITUDE":38.473057599999997,"LONGITUDE":-77.419510799999998}},{"type":"Feature","id":59,"geometry":{"type":"Point","coordinates":[-79.04100000007962,38.130943999946922]},"properties":{"FID":59,"TENANT":"Aldi","STATUS":"Open","ADDRESS":"113 George Cochran Parkway","CITY":"Staunton","STATE":"VA","ZIP_CODE":24401,"LATITUDE":38.130944,"LONGITUDE":-79.040999999999997}},{"type":"Feature","id":60,"geometry":{"type":"Point","coordinates":[-77.407571000321866,39.03494100025609]},"properties":{"FID":60,"TENANT":"Aldi","STATUS":"Open","ADDRESS":"21031 Tripleseven Road","CITY":"Sterling","STATE":"VA","ZIP_CODE":20165,"LATITUDE":39.034941000000003,"LONGITUDE":-77.407571000000004}},{"type":"Feature","id":61,"geometry":{"type":"Point","coordinates":[-77.519797199983529,38.943946999755902]},"properties":{"FID":61,"TENANT":"Aldi","STATUS":"Open","ADDRESS":"24330 Liberty Harvest Court","CITY":"Sterling","STATE":"VA","ZIP_CODE":20165,"LATITUDE":38.943947000000001,"LONGITUDE":-77.519797199999999}},{"type":"Feature","id":62,"geometry":{"type":"Point","coordinates":[-76.584728999812697,36.757322000267763]},"properties":{"FID":62,"TENANT":"Aldi","STATUS":"Open","ADDRESS":"1920 N Main St.","CITY":"Suffolk","STATE":"VA","ZIP_CODE":23434,"LATITUDE":36.757322000000002,"LONGITUDE":-76.584728999999996}},{"type":"Feature","id":63,"geometry":{"type":"Point","coordinates":[-76.174841399942736,36.79512350031294]},"properties":{"FID":63,"TENANT":"Aldi","STATUS":"Open","ADDRESS":"1436 Kempsville Road","CITY":"Virginia Beach","STATE":"VA","ZIP_CODE":23464,"LATITUDE":36.795123500000003,"LONGITUDE":-76.174841400000005}},{"type":"Feature","id":64,"geometry":{"type":"Point","coordinates":[-75.999821999825457,36.787175999777027]},"properties":{"FID":64,"TENANT":"Aldi","STATUS":"Open","ADDRESS":"1577 General Booth Blvd","CITY":"Virginia Beach","STATE":"VA","ZIP_CODE":23454,"LATITUDE":36.787176000000002,"LONGITUDE":-75.999821999999995}},{"type":"Feature","id":65,"geometry":{"type":"Point","coordinates":[-76.119896899600406,36.844271699739636]},"properties":{"FID":65,"TENANT":"Aldi","STATUS":"Open","ADDRESS":"332 Thalia Rd","CITY":"Virginia Beach","STATE":"VA","ZIP_CODE":23452,"LATITUDE":36.8442717,"LONGITUDE":-76.119896900000001}},{"type":"Feature","id":66,"geometry":{"type":"Point","coordinates":[-76.137264000242197,36.903505999830443]},"properties":{"FID":66,"TENANT":"Aldi","STATUS":"Open","ADDRESS":"4803 Shore Drive","CITY":"Virginia Beach","STATE":"VA","ZIP_CODE":23455,"LATITUDE":36.903506,"LONGITUDE":-76.137264000000002}},{"type":"Feature","id":67,"geometry":{"type":"Point","coordinates":[-76.094153999775955,36.811691000260183]},"properties":{"FID":67,"TENANT":"Aldi","STATUS":"Open","ADDRESS":"764 Chantry Dr","CITY":"Virginia Beach","STATE":"VA","ZIP_CODE":23452,"LATITUDE":36.811691000000003,"LONGITUDE":-76.094154000000003}},{"type":"Feature","id":68,"geometry":{"type":"Point","coordinates":[-76.026893499870283,36.856540999669164]},"properties":{"FID":68,"TENANT":"Aldi","STATUS":"Open","ADDRESS":"929 First Colonial Rd","CITY":"Virginia Beach","STATE":"VA","ZIP_CODE":23454,"LATITUDE":36.856541,"LONGITUDE":-76.0268935}},{"type":"Feature","id":69,"geometry":{"type":"Point","coordinates":[-78.942689800113627,38.058148100308316]},"properties":{"FID":69,"TENANT":"Aldi","STATUS":"Open","ADDRESS":"841 Shenandoah Village Dr","CITY":"Waynesboro","STATE":"VA","ZIP_CODE":22980,"LATITUDE":38.058148099999997,"LONGITUDE":-78.942689799999997}},{"type":"Feature","id":70,"geometry":{"type":"Point","coordinates":[-76.724917000034324,37.290148999921087]},"properties":{"FID":70,"TENANT":"Aldi","STATUS":"Open","ADDRESS":"1504 Richmond Road","CITY":"Williamsburg","STATE":"VA","ZIP_CODE":23185,"LATITUDE":37.290149,"LONGITUDE":-76.724917000000005}},{"type":"Feature","id":71,"geometry":{"type":"Point","coordinates":[-78.196206999951357,39.118170999787367]},"properties":{"FID":71,"TENANT":"Aldi","STATUS":"Open","ADDRESS":"221 Kernstown Commons Blvd","CITY":"Winchester","STATE":"VA","ZIP_CODE":22602,"LATITUDE":39.118170999999997,"LONGITUDE":-78.196207000000001}},{"type":"Feature","id":72,"geometry":{"type":"Point","coordinates":[-77.248063500121603,38.664117700257236]},"properties":{"FID":72,"TENANT":"Aldi","STATUS":"Open","ADDRESS":"13291 Gordon Blvd","CITY":"Woodbridge","STATE":"VA","ZIP_CODE":22191,"LATITUDE":38.664117699999998,"LONGITUDE":-77.248063500000001}},{"type":"Feature","id":73,"geometry":{"type":"Point","coordinates":[-77.306644099561382,38.652695399978619]},"properties":{"FID":73,"TENANT":"Aldi","STATUS":"Open","ADDRESS":"13782 Smoketown Road","CITY":"Woodbridge","STATE":"VA","ZIP_CODE":22192,"LATITUDE":38.652695399999999,"LONGITUDE":-77.3066441}}]}